[{"OBJECT_NAME":"TRANSPORTER-14 OBJECT AJ","OBJECT_ID":"2025-135AJ","EPOCH":"2026-03-09T23:01:26.659776","MEAN_MOTION":14.94645004,"ECCENTRICITY":8.275e-5,"INCLINATION":97.7608,"RA_OF_ASC_NODE":184.5717,"ARG_OF_PERICENTER":139.5374,"MEAN_ANOMALY":220.5908,"EPHEMERIS_TYPE":0,"CLASSIFICATION_TYPE":"U","NORAD_CAT_ID":64560,"ELEMENT_SET_NO":999,"REV_AT_EPOCH":3908,"BSTAR":0.00059250683,"MEAN_MOTION_DOT":6.366e-5,"MEAN_MOTION_DDOT":0},{"OBJECT_NAME":"ORBCOMM FM02","OBJECT_ID":"1995-017B","EPOCH":"2026-03-09T15:14:02.878656","MEAN_MOTION":14.96738099,"ECCENTRICITY":0.0008676,"INCLINATION":69.9626,"RA_OF_ASC_NODE":148.0696,"ARG_OF_PERICENTER":276.2558,"MEAN_ANOMALY":83.7611,"EPHEMERIS_TYPE":0,"CLASSIFICATION_TYPE":"U","NORAD_CAT_ID":23546,"ELEMENT_SET_NO":999,"REV_AT_EPOCH":65179,"BSTAR":0.00080978,"MEAN_MOTION_DOT":9.2e-5,"MEAN_MOTION_DDOT":0}]
